GSAT0101 (PRN E11)      
1 37846U 11060A   24044.19403326 -.00000088  00000+0  00000+0 0  9993
2 37846  57.1263   4.9145 0003742 346.4698  13.5051  1.70475674 76541
GSAT0102 (PRN E12)      
1 37847U 11060B   24043.84146601 -.00000087  00000+0  00000+0 0  9994
2 37847  57.1266   4.9240 0005200 327.5586 221.9711  1.70475093 76541
GSAT0103 (PRN E19)      
1 38857U 12055A   24044.23333893 -.00000005  00000+0  00000+0 0  9996
2 38857  55.3495 125.0404 0004781 259.8225 100.1750  1.70473411 70574
GSAT0104 (PRN E20)      
1 38858U 12055B   24043.61600561 -.00000001  00000+0  00000+0 0  9993
2 38858  55.3490 125.0590 0002135 243.8638 116.1658  1.70473576 70428
GSAT0201 (PRN E18)      
1 40128U 14050A   24045.11910122 -.00000079  00000+0  00000+0 0  9992
2 40128  49.7801 308.0470 1606159 146.4518 224.8523  1.85519426 62471
GSAT0202 (PRN E14)      
1 40129U 14050B   24043.22190656 -.00000061  00000+0  00000+0 0  9996
2 40129  49.7997 307.1979 1604362 147.1927 223.8921  1.85520115 64603
GSAT0203 (PRN E26)      
1 40544U 15017A   24045.14640831 -.00000092  00000+0  00000+0 0  9993
2 40544  56.9217   4.8395 0004922 282.7268  77.2041  1.70475553 54647
GSAT0204 (PRN E22)      
1 40545U 15017B   24044.81386338 -.00000091  00000+0  00000+0 0  9995
2 40545  56.9278   4.8635 0004286 273.6733  86.2633  1.70475303 17684
GSAT0205 (PRN E24)      
1 40889U 15045A   24043.99588731  .00000054  00000+0  00000+0 0  9994
2 40889  55.2785 245.2276 0006463  40.4754 319.5921  1.70473315 52439
GSAT0206 (PRN E30)      
1 40890U 15045B   24043.04336199  .00000057  00000+0  00000+0 0  9994
2 40890  55.2780 245.2494 0004351  41.1871 318.8713  1.70473332 52441
GSAT0209 (PRN E09)      
1 41174U 15079A   24044.97337688 -.00000010  00000+0  00000+0 0  9994
2 41174  55.3677 124.7282 0003261 307.6531  52.3678  1.70474750 50219
GSAT0208 (PRN E08)      
1 41175U 15079B   24043.43333127 -.00000001  00000+0  00000+0 0  9999
2 41175  55.3661 124.7686 0002884 301.0242  58.9995  1.70474650 50604
GSAT0211 (PRN E02)      
1 41549U 16030A   24045.31541000  .00000054  00000+0  00000+0 0  9999
2 41549  55.4248 245.1844 0004053  17.6140 342.4154  1.70473380 48112
GSAT0210 (PRN E01)      
1 41550U 16030B   24043.84692109  .00000054  00000+0  00000+0 0  9994
2 41550  55.4250 245.2259 0001743   0.9621 359.0586  1.70473556 48084
GSAT0207 (PRN E07)      
1 41859U 16069A   24045.26710531 -.00000013  00000+0  00000+0 0  9992
2 41859  55.0317 124.7519 0004157 288.2154  71.7887  1.70474731 44848
GSAT0212 (PRN E03)      
1 41860U 16069B   24043.94839570 -.00000004  00000+0  00000+0 0  9992
2 41860  55.0290 124.7852 0002068 316.7414  43.2942  1.70474877 45078
GSAT0213 (PRN E04)      
1 41861U 16069C   24044.90236076 -.00000010  00000+0  00000+0 0  9999
2 41861  55.0315 124.7651 0004552 267.7785  92.2198  1.70473449 44957
GSAT0214 (PRN E05)      
1 41862U 16069D   24040.94270044 -.00000001  00000+0  00000+0 0  9993
2 41862  55.0290 124.8691 0011634 266.4960  93.4120  1.70474291 45017
GSAT0215 (PRN E21)      
1 43055U 17079A   24043.19176921  .00000057  00000+0  00000+0 0  9990
2 43055  55.4027 245.0666 0001337  16.6007 343.4278  1.70474092 38393
GSAT0216 (PRN E25)      
1 43056U 17079B   24044.65671696  .00000053  00000+0  00000+0 0  9998
2 43056  55.4027 245.0259 0002155 329.6647  30.3393  1.70474224 38430
GSAT0217 (PRN E27)      
1 43057U 17079C   24043.70398020  .00000055  00000+0  00000+0 0  9993
2 43057  55.4006 245.0513 0002709 354.1317   5.8860  1.70474149 38402
GSAT0218 (PRN E31)      
1 43058U 17079D   24044.51058268  .00000053  00000+0  00000+0 0  9999
2 43058  55.3998 245.0263 0002211 314.0761  45.9226  1.70474166 38444
GSAT0221 (PRN E15)      
1 43564U 18060A   24043.23714976 -.00000085  00000+0  00000+0 0  9991
2 43564  57.3020   4.8601 0005673 294.3795  65.5455  1.70475333 34572
GSAT0222 (PRN E33)      
1 43565U 18060B   24044.04205901 -.00000088  00000+0  00000+0 0  9998
2 43565  57.3038   4.8398 0004299 273.5423  86.3933  1.70475069 34630
GSAT0219 (PRN E36)      
1 43566U 18060C   24044.26414737 -.00000088  00000+0  00000+0 0  9992
2 43566  57.3045   4.8359 0005027 303.0459  56.8908  1.70475378 34619
GSAT0220 (PRN E13)      
1 43567U 18060D   24045.07126556 -.00000091  00000+0  00000+0 0  9996
2 43567  57.3044   4.8139 0005169 297.8472  62.0861  1.70475149 34610
GSAT0223 (PRN E34)      
1 49809U 21116A   24044.63002903 -.00000090  00000+0  00000+0 0  9996
2 49809  57.2955   4.7209 0002416 266.2354 273.2733  1.70475219 13612
GSAT0224 (PRN E10)      
1 49810U 21116B   24045.03071939 -.00000091  00000+0  00000+0 0  9999
2 49810  57.2963   4.7084 0001998 281.4160 256.4995  1.70475260 13644
